BLUEBON                 
1 62688U 25009CH  26068.70316231  .00010452  00000+0  37313-3 0  9992
2 62688  97.4017 152.2033 0001193  43.3900 316.7434 15.29047253 63767
STARLINK-36427          
1 67333U 26002AE  26067.74467528  .00034987  00000+0  12747-2 0  9999
2 67333  42.9939 330.6507 0000426 294.3069  65.7738 15.27584960 10991
